BEIDOU-2 IGSO-1 (C06)   
1 36828U 10036A   23061.84061144 -.00000163  00000+0  00000+0 0  9996
2 36828  54.2110 173.8679 0035123 185.4649 212.1761  1.00276659 46178
BEIDOU-2 G4 (C04)       
1 37210U 10057A   23062.86402961 -.00000117  00000+0  00000+0 0  9993
2 37210   1.0096  55.2980 0003947 163.8819  53.2564  1.00270342 45237
BEIDOU-2 IGSO-2 (C07)   
1 37256U 10068A   23062.45713088 -.00000152  00000+0  00000+0 0  9994
2 37256  49.7442 286.5382 0023155 203.9002 303.1855  1.00286019 44742
BEIDOU-2 IGSO-3 (C08)   
1 37384U 11013A   23062.40257815 -.00000141  00000+0  00000+0 0  9991
2 37384  60.6734  51.7010 0024180 189.0073 171.8876  1.00285798 43623
BEIDOU-2 IGSO-4 (C09)   
1 37763U 11038A   23062.77941686 -.00000129  00000+0  00000+0 0  9991
2 37763  54.4881 176.3724 0104799 227.7685 133.0980  1.00269495 42607
BEIDOU-2 IGSO-5 (C10)   
1 37948U 11073A   23062.45405984 -.00000106  00000+0  00000+0 0  9991
2 37948  49.8667 286.1929 0085010 219.8494 274.7380  1.00275057 41352
BEIDOU-2 G5 (C05)       
1 38091U 12008A   23062.55674550  .00000051  00000+0  00000+0 0  9996
2 38091   2.1636  71.7018 0013928 311.2450  37.2531  1.00274951 40424
BEIDOU-2 M3 (C11)       
1 38250U 12018A   23062.11404227 -.00000109  00000+0  00000+0 0  9993
2 38250  56.6014 345.0076 0023366 262.5504 208.2689  1.86231191 73907
BEIDOU-2 M4 (C12)       
1 38251U 12018B   23062.58751065 -.00000105  00000+0  00000+0 0  9996
2 38251  56.5153 344.2991 0014196 269.2358 203.5899  1.86234208 73914
BEIDOU-2 M6 (C14)       
1 38775U 12050B   23062.28368153  .00000002  00000+0  00000+0 0  9997
2 38775  55.5612 102.9784 0013357 322.1044 142.1237  1.86231191 71282
BEIDOU-2 G6 (C02)       
1 38953U 12059A   23062.84886292 -.00000181  00000+0  00000+0 0  9994
2 38953   1.5680  82.4397 0010850 297.3291 171.1426  1.00275359 37868
BEIDOU-3S IGSO-1S (C31) 
1 40549U 15019A   23062.16844848 -.00000139  00000+0  00000+0 0  9996
2 40549  51.4327 309.7398 0035812 193.6118 170.7107  1.00297352 29039
BEIDOU-3S M2S (C57)     
1 40748U 15037A   23062.34620161 -.00000106  00000+0  00000+0 0  9991
2 40748  55.7608 343.0148 0005198 359.9381 220.1820  1.86233217 51734
BEIDOU-3S M1S (C58)     
1 40749U 15037B   23062.52018740 -.00000105  00000+0  00000+0 0  9995
2 40749  55.7631 342.9997 0006844 331.9891 138.7735  1.86232967 51736
BEIDOU-3S IGSO-2S (C56) 
1 40938U 15053A   23062.39028699 -.00000077  00000+0  00000+0 0  9990
2 40938  51.0955 272.8817 0043986 192.1804 292.6622  1.00280222 27309
BEIDOU-2 IGSO-6 (C13)   
1 41434U 16021A   23062.92295301 -.00000123  00000+0  00000+0 0  9995
2 41434  58.4808  50.1519 0049049 225.8762 314.0111  1.00275269 25437
BEIDOU-2 G7 (C03)       
1 41586U 16037A   23062.90725920 -.00000359  00000+0  00000+0 0  9994
2 41586   1.4511  64.2441 0009294 342.5938 191.6676  1.00276862 24742
BEIDOU-3 M1 (C19)       
1 43001U 17069A   23062.43201606  .00000004  00000+0  00000+0 0  9998
2 43001  55.7142 103.0084 0011281 287.7013  72.4481  1.86231494 36228
BEIDOU-3 M2 (C20)       
1 43002U 17069B   23062.36489913  .00000003  00000+0  00000+0 0  9999
2 43002  55.7127 103.0468 0008797 306.2054  51.6714  1.86231256 36200
BEIDOU-3 M7 (C27)       
1 43107U 18003A   23062.42035091 -.00000107  00000+0  00000+0 0  9991
2 43107  55.2131 343.8149 0004738  42.6393 158.9911  1.86232373 34977
BEIDOU-3 M8 (C28)       
1 43108U 18003B   23062.18164916 -.00000108  00000+0  00000+0 0  9995
2 43108  55.2084 343.8115 0003551 279.3368 164.6919  1.86230770 34972
BEIDOU-3 M4 (C22)       
1 43207U 18018A   23061.96273614 -.00000002  00000+0  00000+0 0  9995
2 43207  55.6735 103.1295 0005613 325.1323  34.9081  1.86231405 34354
BEIDOU-3 M3 (C21)       
1 43208U 18018B   23062.02932397 -.00000001  00000+0  00000+0 0  9993
2 43208  55.6713 103.1311 0008885 296.8867  63.0975  1.86231560 34358
BEIDOU-3 M9 (C29)       
1 43245U 18029A   23062.62299237 -.00000103  00000+0  00000+0 0  9994
2 43245  55.1171 341.5582 0001628 331.6239 276.4977  1.86232444 33510
BEIDOU-3 M10 (C30)      
1 43246U 18029B   23061.23521958 -.00000111  00000+0  10000-3 0  9993
2 43246  55.1154 341.6352 0005343 356.5527  87.8714  1.86232607 33482
BEIDOU-2 IGSO-7 (C16)   
1 43539U 18057A   23062.72657155 -.00000168  00000+0  00000+0 0  9990
2 43539  55.1032 173.4527 0056816 228.1812 132.7373  1.00287166 17118
BEIDOU-3 M5 (C23)       
1 43581U 18062A   23062.43282818  .00000026  00000+0  00000+0 0  9993
2 43581  54.2124 223.2244 0001664 337.2843  41.8313  1.86231871 31255
BEIDOU-3 M6 (C24)       
1 43582U 18062B   23061.05801793  .00000040  00000+0  00000+0 0  9996
2 43582  54.2129 223.2608 0006947  33.2092 235.6795  1.86229511 31225
BEIDOU-3 M12 (C26)      
1 43602U 18067A   23062.30304745  .00000025  00000+0  00000+0 0  9991
2 43602  54.2985 221.8567 0007938  24.2892  40.6719  1.86231597 30748
BEIDOU-3 M11 (C25)      
1 43603U 18067B   23062.36769442  .00000025  00000+0  00000+0 0  9997
2 43603  54.2963 221.8206 0004738  21.1016 357.5239  1.86231512 30760
BEIDOU-3 M13 (C32)      
1 43622U 18072A   23062.83317325  .00000009  00000+0  00000+0 0  9997
2 43622  55.6406 102.6452 0007963 282.6390  76.4641  1.86231362 30272
BEIDOU-3 M14 (C33)      
1 43623U 18072B   23062.69948672  .00000008  00000+0  00000+0 0  9996
2 43623  55.6439 102.6432 0005474 300.3764  59.3326  1.86231358 30270
BEIDOU-3 M16 (C35)      
1 43647U 18078A   23062.60458139 -.00000104  00000+0  10000-3 0  9996
2 43647  55.0126 341.6962 0008701   3.4969 186.8114  1.86227071 29782
BEIDOU-3 M15 (C34)      
1 43648U 18078B   23062.76304652 -.00000103  00000+0  00000+0 0  9998
2 43648  55.0080 341.6957 0005338   8.5152 197.1723  1.86232065 29802
BEIDOU-3 G1 (C59)       
1 43683U 18085A   23062.86002003 -.00000286  00000+0  00000+0 0  9993
2 43683   1.1449 140.2670 0001693  26.3064  84.3327  1.00267156 16018
BEIDOU-3 M17 (C36)      
1 43706U 18093A   23062.60567596  .00000025  00000+0  00000+0 0  9993
2 43706  54.2959 223.1220 0006856 284.6987  75.1878  1.86232061 29160
BEIDOU-3 M18 (C37)      
1 43707U 18093B   23061.42063604  .00000036  00000+0  00000+0 0  9996
2 43707  54.2993 223.1538 0005960 323.2189  53.5496  1.86230686 29134
BEIDOU-3 IGSO-1 (C38)   
1 44204U 19023A   23062.85601044 -.00000180  00000+0  00000+0 0  9998
2 44204  56.9476  50.1951 0020595 208.8122 329.7792  1.00284557 14318
BEIDOU-2 G8 (C01)       
1 44231U 19027A   23062.93262831 -.00000254  00000+0  00000+0 0  9990
2 44231   1.4957  80.8503 0004808 141.1004  59.6366  1.00266873 14022
BEIDOU-3 IGSO-2 (C39)   
1 44337U 19035A   23062.61508471 -.00000174  00000+0  00000+0 0  9995
2 44337  55.1412 169.4209 0029836 195.0532 137.6118  1.00278434 13645
BEIDOU-3 M24 (C46)      
1 44542U 19061A   23062.00554890  .00000031  00000+0  00000+0 0  9992
2 44542  54.5228 223.3357 0007992   2.3156 357.6533  1.86231295 23404
BEIDOU-3 M23 (C45)      
1 44543U 19061B   23061.93569451  .00000032  00000+0  00000+0 0  9994
2 44543  54.5192 223.3076 0005332   4.0504 220.7145  1.86231634 23399
BEIDOU-3 IGSO-3 (C40)   
1 44709U 19073A   23061.30956056 -.00000142  00000+0  00000+0 0  9996
2 44709  56.8472 293.7005 0028583 178.2638 278.3303  1.00284161 12388
BEIDOU-3 M22 (C44)      
1 44793U 19078A   23062.69373053 -.00000103  00000+0  10000-3 0  9999
2 44793  54.8613 341.6827 0007299   8.8760 196.5236  1.86231958 22271
BEIDOU-3 M21 (C43)      
1 44794U 19078B   23062.28701529 -.00000106  00000+0  00000+0 0  9996
2 44794  54.8350 341.6829 0005235   2.8266 202.0207  1.86232559 22263
BEIDOU-3 M19 (C41)      
1 44864U 19090A   23062.76651647  .00000008  00000+0  00000+0 0  9996
2 44864  55.5758 102.8459 0018794 271.8070  88.6817  1.86231740 21863
BEIDOU-3 M20 (C42)      
1 44865U 19090B   23062.09763973 -.00000001  00000+0  00000+0 0  9993
2 44865  55.5782 102.8996 0016375 283.9090  77.9588  1.86231707 21821
BEIDOU-3 G2 (C60)       
1 45344U 20017A   23060.76852503 -.00000146  00000+0  00000+0 0  9997
2 45344   1.9892   5.9880 0001024   2.6282 147.3415  1.00273741 11190
BEIDOU-3 G3 (C61)       
1 45807U 20040A   23062.35217307 -.00000359  00000+0  00000+0 0  9997
2 45807   0.8893 316.8600 0007741 338.5378 102.6527  1.00266256 10028
